[ {"name": "STARLINK-3977", "line1": "1 52640U 22052AU  26154.53055261 -.00001737  00000+0 -91117-4 0  9995", "line2": "2 52640  53.1857 233.7697 0001313 104.9928 255.1210 15.08826990224086"}, {"name": "STARLINK-3991", "line1": "1 52641U 22052AV  26155.33356481 -.00026003  00000+0 -16211-2 0  9996", "line2": "2 52641  53.1764 230.3390 0001209  87.4142 331.6145 15.08851406  5752"}, {"name": "STARLINK-3971", "line1": "1 52642U 22052AW  26154.45326525 -.00000830  00000+0 -34018-4 0  9992", "line2": "2 52642  53.1917 234.1008 0002449  78.0924 282.0342 15.08830232224072"}, {"name": "STARLINK-3963", "line1": "1 52643U 22052AX  26154.49469413 -.00000121  00000+0  10504-4 0  9997", "line2": "2 52643  53.1881 233.8769 0002141  49.3258 310.7920 15.08838508224089"}, {"name": "STARLINK-3985", "line1": "1 52644U 22052AY  26156.10558191  .00000264  00000+0  34684-4 0  9992", "line2": "2 52644  53.1770 226.6685 0000777  63.1187 296.9884 15.08833715224328"}, {"name": "STARLINK-3973", "line1": "1 52645U 22052AZ  26154.43855264 -.00000345  00000+0 -35443-5 0  9995", "line2": "2 52645  53.1861 234.2794 0001713  56.9667 303.1489 15.08836943224070"}, {"name": "STARLINK-3832", "line1": "1 52646U 22052BA  26154.50846265  .00000377  00000+0  41806-4 0  9997", "line2": "2 52646  53.1828 233.8812 0001358  65.8412 294.2721 15.08839096224095"}, {"name": "STARLINK-3854", "line1": "1 52648U 22052BC  26154.76605714 -.00000907  00000+0 -38886-4 0  9994", "line2": "2 52648  53.1829 232.6917 0001106 103.0244 257.0872 15.08836109224120"}, {"name": "STARLINK-3868", "line1": "1 52649U 22052BD  26154.54157474 -.00004475  00000+0 -26340-3 0  9991", "line2": "2 52649  53.1865 233.5431 0001518 110.5432 249.5723 15.08817989224105"}, {"name": "STARLINK-3891", "line1": "1 52650U 22052BE  26154.50941768 -.00002395  00000+0 -13251-3 0  9992", "line2": "2 52650  53.1831 223.9453 0001492  50.6835 309.4288 15.08812583224230"}, {"name": "STARLINK-4004", "line1": "1 52656U 22053A   26155.20170595  .00000327  00000+0  38624-4 0  9992", "line2": "2 52656  53.1804 125.7430 0001024 119.5101 240.5993 15.08846328224177"}, {"name": "STARLINK-4084", "line1": "1 52657U 22053B   26156.16591524  .00000657  00000+0  59343-4 0  9995", "line2": "2 52657  53.1792 121.7190 0001420  74.0035 286.1113 15.08840199224613"}, {"name": "STARLINK-4082", "line1": "1 52658U 22053C   26155.13820233  .00000779  00000+0  67049-4 0  9991", "line2": "2 52658  53.1799 126.0246 0001393  61.8784 298.2348 15.08824390224287"}, {"name": "STARLINK-3960", "line1": "1 52659U 22053D   26155.20075034 -.00000063  00000+0  14139-4 0  9990", "line2": "2 52659  53.1804 125.6911 0001313 100.1973 259.9167 15.08831390224289"}, {"name": "STARLINK-4081", "line1": "1 52660U 22053E   26155.19707680  .00000966  00000+0  78798-4 0  9991", "line2": "2 52660  53.1810 125.7646 0001163 115.7633 244.3479 15.08841649224172"}, {"name": "STARLINK-4044", "line1": "1 52662U 22053G   26156.17963958  .00002729  00000+0  18957-3 0  9993", "line2": "2 52662  53.1768 121.3384 0001044  92.7710 267.3401 15.08823376224251"}, {"name": "STARLINK-4037", "line1": "1 52663U 22053H   26156.04348014 -.00000132  00000+0  98281-5 0  9997", "line2": "2 52663  53.1796 121.9596 0001297  97.9951 262.1188 15.08835708224233"}, {"name": "STARLINK-4070", "line1": "1 52664U 22053J   26156.05083883  .00000149  00000+0  27481-4 0  9999", "line2": "2 52664  53.1793 121.9188 0001230  70.1385 289.9739 15.08836641224235"}, {"name": "STARLINK-4064", "line1": "1 52665U 22053K   26156.16492167 -.00000279  00000+0  58597-6 0  9990", "line2": "2 52665  53.1799 121.4020 0001313  72.8580 287.2555 15.08841026224252"}, {"name": "STARLINK-4079", "line1": "1 52666U 22053L   26155.20807417 -.00005940  00000+0 -35530-3 0  9993", "line2": "2 52666  53.1818 125.3156 0001641 135.5744 224.5379 15.08851217224117"}, {"name": "STARLINK-4076", "line1": "1 52667U 22053M   26156.16124243  .00000035  00000+0  20284-4 0  9998", "line2": "2 52667  53.1799 121.4184 0001561  68.0515 292.0642 15.08834515224251"}, {"name": "STARLINK-4067", "line1": "1 52668U 22053N   26155.24124249  .00001036  00000+0  83178-4 0  9996", "line2": "2 52668  53.1810 125.5499 0001536  62.3503 297.7645 15.08833344224115"}, {"name": "STARLINK-3972", "line1": "1 52669U 22053P   26155.22283671 -.00003062  00000+0 -17431-3 0  9991", "line2": "2 52669  53.1804 125.6254 0001499  63.1488 296.9657 15.08852709224107"}, {"name": "STARLINK-4075", "line1": "1 52670U 22053Q   26155.17869235  .00000484  00000+0  48535-4 0  9996", "line2": "2 52670  53.1813 125.9036 0001848  54.9157 305.2008 15.08837820224100"}, {"name": "STARLINK-4071", "line1": "1 52671U 22053R   26155.15291587 -.00006373  00000+0 -38237-3 0  9996", "line2": "2 52671  53.1820 125.9566 0002392 154.9750 205.1359 15.08861010224095"}, {"name": "STARLINK-4073", "line1": "1 52672U 22053S   26155.23020110 -.00001192  00000+0 -56813-4 0  9993", "line2": "2 52672  53.1809 125.5941 0001686  58.0746 302.0409 15.08841981224100"}, {"name": "STARLINK-3976", "line1": "1 52673U 22053T   26156.20540712  .00005280  00000+0  34985-3 0  9992", "line2": "2 52673  53.1781 121.2191 0001305  80.4183 279.6956 15.08807500224253"}, {"name": "STARLINK-3936", "line1": "1 52674U 22053U   26156.16670139  .00189339  00000+0  40123-2 0  9993", "line2": "2 52674  53.2173 113.2995 0001310  74.1668 218.7619 15.43902704  5794"}, {"name": "STARLINK-3934", "line1": "1 52675U 22053V   26156.13640008  .00004383  00000+0  29344-3 0  9991", "line2": "2 52675  53.1787 111.5331 0001313  96.0271 264.0870 15.08823630224377"}, {"name": "STARLINK-4006", "line1": "1 52676U 22053W   26155.14923998 -.00000800  00000+0 -32180-4 0  9999", "line2": "2 52676  53.1820 125.9716 0001761  98.8737 261.2454 15.08837781224094"}]