OBJECT_NAME,OBJECT_ID,EPOCH,MEAN_MOTION,ECCENTRICITY,INCLINATION,RA_OF_ASC_NODE,ARG_OF_PERICENTER,MEAN_ANOMALY,EPHEMERIS_TYPE,CLASSIFICATION_TYPE,NORAD_CAT_ID,ELEMENT_SET_NO,REV_AT_EPOCH,BSTAR,MEAN_MOTION_DOT,MEAN_MOTION_DDOT
STARLINK-3977,2022-052AU,2026-06-03T12:43:59.745504,15.08826990,.00013133,53.1857,233.7697,104.9928,255.1210,0,U,52640,999,22408,-.91117093E-4,-.1737E-4,0
STARLINK-3991,2022-052AV,2026-06-04T08:00:19.999584,15.08851406,.00012098,53.1764,230.3390,87.4142,331.6145,0,U,52641,999,575,-.16210836E-2,-.26003E-3,0
STARLINK-3971,2022-052AW,2026-06-03T10:52:42.117600,15.08830232,.00024497,53.1917,234.1008,78.0924,282.0342,0,U,52642,999,22407,-.34018252E-4,-.83E-5,0
STARLINK-3963,2022-052AX,2026-06-03T11:52:21.572832,15.08838508,.0002141,53.1881,233.8769,49.3258,310.7920,0,U,52643,999,22408,.10504E-4,-.121E-5,0
STARLINK-3985,2022-052AY,2026-06-05T02:32:02.277024,15.08833715,.0000777,53.1770,226.6685,63.1187,296.9884,0,U,52644,999,22432,.34684E-4,.264E-5,0
STARLINK-3973,2022-052AZ,2026-06-03T10:31:30.948096,15.08836943,.0001713,53.1861,234.2794,56.9667,303.1489,0,U,52645,999,22407,-.35443E-5,-.345E-5,0
STARLINK-3832,2022-052BA,2026-06-03T12:12:11.172960,15.08839096,.00013587,53.1828,233.8812,65.8412,294.2721,0,U,52646,999,22409,.41805941E-4,.377E-5,0
STARLINK-3854,2022-052BC,2026-06-03T18:23:07.336896,15.08836109,.00011062,53.1829,232.6917,103.0244,257.0872,0,U,52648,999,22412,-.3888623E-4,-.907E-5,0
STARLINK-3868,2022-052BD,2026-06-03T12:59:52.057536,15.08817989,.00015182,53.1865,233.5431,110.5432,249.5723,0,U,52649,999,22410,-.26339527E-3,-.4475E-4,0
STARLINK-3891,2022-052BE,2026-06-03T12:13:33.687552,15.08812583,.00014923,53.1831,223.9453,50.6835,309.4288,0,U,52650,999,22423,-.13250732E-3,-.2395E-4,0
STARLINK-4004,2022-053A,2026-06-04T04:50:27.394080,15.08846328,.00010249,53.1804,125.7430,119.5101,240.5993,0,U,52656,999,22417,.38623866E-4,.327E-5,0
STARLINK-4084,2022-053B,2026-06-05T03:58:55.076736,15.08840199,.000142,53.1792,121.7190,74.0035,286.1113,0,U,52657,999,22461,.59343E-4,.657E-5,0
STARLINK-4082,2022-053C,2026-06-04T03:19:00.681312,15.08824390,.00013937,53.1799,126.0246,61.8784,298.2348,0,U,52658,999,22428,.67048705E-4,.779E-5,0
STARLINK-3960,2022-053D,2026-06-04T04:49:04.829376,15.08831390,.00013133,53.1804,125.6911,100.1973,259.9167,0,U,52659,999,22428,.14139091E-4,-.63E-6,0
STARLINK-4081,2022-053E,2026-06-04T04:43:47.435520,15.08841649,.00011636,53.1810,125.7646,115.7633,244.3479,0,U,52660,999,22417,.78797706E-4,.966E-5,0
STARLINK-4044,2022-053G,2026-06-05T04:18:40.859712,15.08823376,.0001044,53.1768,121.3384,92.7710,267.3401,0,U,52662,999,22425,.18957E-3,.2729E-4,0
STARLINK-4037,2022-053H,2026-06-05T01:02:36.684096,15.08835708,.0001297,53.1796,121.9596,97.9951,262.1188,0,U,52663,999,22423,.98281E-5,-.132E-5,0
STARLINK-4070,2022-053J,2026-06-05T01:13:12.474912,15.08836641,.000123,53.1793,121.9188,70.1385,289.9739,0,U,52664,999,22423,.27481E-4,.149E-5,0
STARLINK-4064,2022-053K,2026-06-05T03:57:29.232288,15.08841026,.0001313,53.1799,121.4020,72.8580,287.2555,0,U,52665,999,22425,.58597E-6,-.279E-5,0
STARLINK-4079,2022-053L,2026-06-04T04:59:37.608288,15.08851217,.00016418,53.1818,125.3156,135.5744,224.5379,0,U,52666,999,22411,-.35530027E-3,-.594E-4,0
STARLINK-4076,2022-053M,2026-06-05T03:52:11.345952,15.08834515,.0001561,53.1799,121.4184,68.0515,292.0642,0,U,52667,999,22425,.20284E-4,.35E-6,0
STARLINK-4067,2022-053N,2026-06-04T05:47:23.351136,15.08833344,.0001536,53.1810,125.5499,62.3503,297.7645,0,U,52668,999,22411,.83178437E-4,.1036E-4,0
STARLINK-3972,2022-053P,2026-06-04T05:20:53.091744,15.08852709,.00014993,53.1804,125.6254,63.1488,296.9657,0,U,52669,999,22410,-.17430971E-3,-.3062E-4,0
STARLINK-4075,2022-053Q,2026-06-04T04:17:19.019040,15.08837820,.00018489,53.1813,125.9036,54.9157,305.2008,0,U,52670,999,22410,.48535282E-4,.484E-5,0
STARLINK-4071,2022-053R,2026-06-04T03:40:11.931168,15.08861010,.00023925,53.1820,125.9566,154.9750,205.1359,0,U,52671,999,22409,-.3823678E-3,-.6373E-4,0
STARLINK-4073,2022-053S,2026-06-04T05:31:29.375040,15.08841981,.00016861,53.1809,125.5941,58.0746,302.0409,0,U,52672,999,22410,-.56813316E-4,-.1192E-4,0
STARLINK-3976,2022-053T,2026-06-05T04:55:47.175168,15.08807500,.0001305,53.1781,121.2191,80.4183,279.6956,0,U,52673,999,22425,.34985E-3,.528E-4,0
STARLINK-3936,2022-053U,2026-06-05T04:00:03.000096,15.43902704,.000131,53.2173,113.2995,74.1668,218.7619,0,U,52674,999,579,.40123E-2,.189339E-2,0
STARLINK-3934,2022-053V,2026-06-05T03:16:24.966912,15.08823630,.0001313,53.1787,111.5331,96.0271,264.0870,0,U,52675,999,22437,.29344E-3,.4383E-4,0
STARLINK-4006,2022-053W,2026-06-04T03:34:54.334272,15.08837781,.0001761,53.1820,125.9716,98.8737,261.2454,0,U,52676,999,22409,-.3217989E-4,-.8E-5,0
